*******************************************************************************
Ephemeris / WWW_USER Fri Mar  7 11:11:55 2025 Pasadena, USA      / Horizons    
*******************************************************************************
Target body name: (2018 VX1)                      {source: JPL#7}
Center body name: Earth (399)                     {source: DE441}
Center-site name: Mauna Kea
*******************************************************************************
Start time      : A.D. 2018-Nov-28 03:51:00.0000 UT      
Stop  time      : A.D. 2018-Nov-28 16:28:00.0000 UT      
Step-size       : 1 minutes
*******************************************************************************
Target pole/equ : undefined
Target radii    : undefined                                                    
Center geodetic : 204.5278, 19.8260847, 4.21024   {E-lon(deg),Lat(deg),Alt(km)}
Center cylindric: 204.5278, 6006.35451, 2151.0229 {E-lon(deg),Dxy(km),Dz(km)}
Center pole/equ : ITRF93                          {East-longitude positive}
Center radii    : 6378.137, 6378.137, 6356.752 km {Equator_a, b, pole_c}       
Target primary  : Sun
Vis. interferer : MOON (R_eq= 1737.400) km        {source: DE441}
Rel. light bend : Sun                             {source: DE441}
Rel. lght bnd GM: 1.3271E+11 km^3/s^2                                          
Small-body perts: Yes                             {source: SB441-N16}
Atmos refraction: NO (AIRLESS)
RA format       : HMS
Time format     : CAL 
Calendar mode   : Mixed Julian/Gregorian
RTS-only print  : NO       
EOP file        : eop.250306.p250602                                           
EOP coverage    : DATA-BASED 1962-JAN-20 TO 2025-MAR-06. PREDICTS-> 2025-JUN-01
Units conversion: 1 au= 149597870.700 km, c= 299792.458 km/s, 1 day= 86400.0 s 
Table cut-offs 1: Elevation (-90.0deg=NO ),Airmass (>38.000=NO), Daylight (YES)
Table cut-offs 2: Solar elongation (  0.0,180.0=NO ),Local Hour Angle( 0.0=NO )
Table cut-offs 3: RA/DEC angular rate (     0.0=NO )                           
*******************************************************************************
Initial IAU76/J2000 heliocentric ecliptic osculating elements (au, days, deg.):
  EPOCH=  2458429.5 ! 2018-Nov-07.00 (TDB)         Residual RMS= .34243        
   EC= .3094465550301519   QR= .9449639043218054   TP= 2458464.0659233886      
   OM= 45.67874041641947   W=  38.97310343924259   IN= 3.356915226222919       
  Equivalent ICRF heliocentric cartesian coordinates (au, au/d):
   X= 7.224620352366717E-01  Y= 6.383229877646874E-01  Z= 2.747435985069854E-01
  VX=-1.546092850205216E-02 VY= 1.016746642579675E-02 VZ= 5.632057443641291E-03
Asteroid physical parameters (km, seconds, rotational period in hours):        
   GM= n.a.                RAD= n.a.               ROTPER= n.a.                
   H= 27.5                 G= .150                 B-V= n.a.                   
                           ALBEDO= n.a.            STYP= n.a.                  
*******************************************************************************
 Date__(UT)__HR:MN     R.A._________(ICRF)_________DEC
******************************************************
$$SOE
 2018-Nov-28 12:03  m  13 17 38.387662 +11 03 35.52055
 2018-Nov-28 12:04  m  13 17 38.414496 +11 03 35.03840
 2018-Nov-28 12:05  m  13 17 38.441162 +11 03 34.55641
 2018-Nov-28 12:06  m  13 17 38.467659 +11 03 34.07457
 2018-Nov-28 12:07  m  13 17 38.493987 +11 03 33.59287
 2018-Nov-28 12:08  m  13 17 38.520147 +11 03 33.11132
 2018-Nov-28 12:09  m  13 17 38.546137 +11 03 32.62992
 2018-Nov-28 12:10  m  13 17 38.571958 +11 03 32.14865
 2018-Nov-28 12:11  m  13 17 38.597609 +11 03 31.66753
 2018-Nov-28 12:12  m  13 17 38.623090 +11 03 31.18654
 2018-Nov-28 12:13  m  13 17 38.648402 +11 03 30.70569
 2018-Nov-28 12:14  m  13 17 38.673544 +11 03 30.22497
 2018-Nov-28 12:15  m  13 17 38.698515 +11 03 29.74438
 2018-Nov-28 12:16  m  13 17 38.723316 +11 03 29.26392
 2018-Nov-28 12:17  m  13 17 38.747946 +11 03 28.78359
 2018-Nov-28 12:18  m  13 17 38.772405 +11 03 28.30338
 2018-Nov-28 12:19  m  13 17 38.796694 +11 03 27.82330
 2018-Nov-28 12:20  m  13 17 38.820811 +11 03 27.34333
 2018-Nov-28 12:21  m  13 17 38.844757 +11 03 26.86349
 2018-Nov-28 12:22  m  13 17 38.868532 +11 03 26.38376
 2018-Nov-28 12:23  m  13 17 38.892135 +11 03 25.90414
 2018-Nov-28 12:24  m  13 17 38.915567 +11 03 25.42464
 2018-Nov-28 12:25  m  13 17 38.938827 +11 03 24.94524
 2018-Nov-28 12:26  m  13 17 38.961915 +11 03 24.46595
 2018-Nov-28 12:27  m  13 17 38.984830 +11 03 23.98677
 2018-Nov-28 12:28  m  13 17 39.007574 +11 03 23.50770
 2018-Nov-28 12:29  m  13 17 39.030145 +11 03 23.02872
 2018-Nov-28 12:30  m  13 17 39.052544 +11 03 22.54984
 2018-Nov-28 12:31  m  13 17 39.074770 +11 03 22.07106
 2018-Nov-28 12:32  m  13 17 39.096823 +11 03 21.59238
 2018-Nov-28 12:33  m  13 17 39.118704 +11 03 21.11379
 2018-Nov-28 12:34  m  13 17 39.140411 +11 03 20.63528
 2018-Nov-28 12:35  m  13 17 39.161946 +11 03 20.15687
 2018-Nov-28 12:36  m  13 17 39.183308 +11 03 19.67854
 2018-Nov-28 12:37  m  13 17 39.204496 +11 03 19.20030
 2018-Nov-28 12:38  m  13 17 39.225511 +11 03 18.72214
 2018-Nov-28 12:39  m  13 17 39.246352 +11 03 18.24406
 2018-Nov-28 12:40  m  13 17 39.267020 +11 03 17.76606
 2018-Nov-28 12:41  m  13 17 39.287515 +11 03 17.28813
 2018-Nov-28 12:42  m  13 17 39.307836 +11 03 16.81028
 2018-Nov-28 12:43  m  13 17 39.327983 +11 03 16.33249
 2018-Nov-28 12:44  r  13 17 39.347956 +11 03 15.85478
 2018-Nov-28 12:45  m  13 17 39.367755 +11 03 15.37713
 2018-Nov-28 12:46  m  13 17 39.387380 +11 03 14.89955
 2018-Nov-28 12:47  m  13 17 39.406831 +11 03 14.42203
 2018-Nov-28 12:48  m  13 17 39.426109 +11 03 13.94458
 2018-Nov-28 12:49  m  13 17 39.445211 +11 03 13.46718
 2018-Nov-28 12:50  m  13 17 39.464140 +11 03 12.98983
 2018-Nov-28 12:51  m  13 17 39.482895 +11 03 12.51254
 2018-Nov-28 12:52  m  13 17 39.501475 +11 03 12.03531
 2018-Nov-28 12:53  m  13 17 39.519880 +11 03 11.55812
 2018-Nov-28 12:54  m  13 17 39.538112 +11 03 11.08098
 2018-Nov-28 12:55  m  13 17 39.556169 +11 03 10.60389
 2018-Nov-28 12:56  m  13 17 39.574051 +11 03 10.12683
 2018-Nov-28 12:57  m  13 17 39.591759 +11 03 09.64983
 2018-Nov-28 12:58  m  13 17 39.609292 +11 03 09.17285
 2018-Nov-28 12:59  m  13 17 39.626651 +11 03 08.69592
 2018-Nov-28 13:00  m  13 17 39.643835 +11 03 08.21902
 2018-Nov-28 13:01  m  13 17 39.660844 +11 03 07.74215
 2018-Nov-28 13:02  m  13 17 39.677679 +11 03 07.26532
 2018-Nov-28 13:03  m  13 17 39.694339 +11 03 06.78851
 2018-Nov-28 13:04  m  13 17 39.710825 +11 03 06.31173
 2018-Nov-28 13:05  m  13 17 39.727136 +11 03 05.83497
 2018-Nov-28 13:06  m  13 17 39.743272 +11 03 05.35823
 2018-Nov-28 13:07  m  13 17 39.759233 +11 03 04.88152
 2018-Nov-28 13:08  m  13 17 39.775020 +11 03 04.40482
 2018-Nov-28 13:09  m  13 17 39.790632 +11 03 03.92814
 2018-Nov-28 13:10  m  13 17 39.806070 +11 03 03.45146
 2018-Nov-28 13:11  m  13 17 39.821333 +11 03 02.97481
 2018-Nov-28 13:12  m  13 17 39.836421 +11 03 02.49815
 2018-Nov-28 13:13  m  13 17 39.851335 +11 03 02.02151
 2018-Nov-28 13:14  m  13 17 39.866074 +11 03 01.54487
 2018-Nov-28 13:15  m  13 17 39.880639 +11 03 01.06823
 2018-Nov-28 13:16  m  13 17 39.895029 +11 03 00.59160
 2018-Nov-28 13:17  m  13 17 39.909244 +11 03 00.11496
 2018-Nov-28 13:18  m  13 17 39.923286 +11 02 59.63831
 2018-Nov-28 13:19  m  13 17 39.937153 +11 02 59.16167
 2018-Nov-28 13:20  m  13 17 39.950845 +11 02 58.68501
 2018-Nov-28 13:21  m  13 17 39.964363 +11 02 58.20834
 2018-Nov-28 13:22  m  13 17 39.977707 +11 02 57.73166
 2018-Nov-28 13:23  m  13 17 39.990877 +11 02 57.25496
 2018-Nov-28 13:24  m  13 17 40.003872 +11 02 56.77825
 2018-Nov-28 13:25  m  13 17 40.016694 +11 02 56.30152
 2018-Nov-28 13:26  m  13 17 40.029342 +11 02 55.82477
 2018-Nov-28 13:27  m  13 17 40.041815 +11 02 55.34799
 2018-Nov-28 13:28  m  13 17 40.054115 +11 02 54.87119
 2018-Nov-28 13:29  m  13 17 40.066241 +11 02 54.39436
 2018-Nov-28 13:30  m  13 17 40.078193 +11 02 53.91750
 2018-Nov-28 13:31  m  13 17 40.089972 +11 02 53.44061
 2018-Nov-28 13:32  m  13 17 40.101577 +11 02 52.96368
 2018-Nov-28 13:33  m  13 17 40.113008 +11 02 52.48672
 2018-Nov-28 13:34  m  13 17 40.124266 +11 02 52.00972
 2018-Nov-28 13:35  m  13 17 40.135351 +11 02 51.53268
 2018-Nov-28 13:36  m  13 17 40.146263 +11 02 51.05559
 2018-Nov-28 13:37  m  13 17 40.157002 +11 02 50.57846
 2018-Nov-28 13:38  m  13 17 40.167567 +11 02 50.10129
 2018-Nov-28 13:39  m  13 17 40.177960 +11 02 49.62406
 2018-Nov-28 13:40  m  13 17 40.188180 +11 02 49.14679
 2018-Nov-28 13:41  m  13 17 40.198228 +11 02 48.66946
 2018-Nov-28 13:42  m  13 17 40.208103 +11 02 48.19208
 2018-Nov-28 13:43  m  13 17 40.217805 +11 02 47.71463
 2018-Nov-28 13:44  m  13 17 40.227336 +11 02 47.23713
 2018-Nov-28 13:45  m  13 17 40.236694 +11 02 46.75957
 2018-Nov-28 13:46  m  13 17 40.245880 +11 02 46.28194
 2018-Nov-28 13:47  m  13 17 40.254894 +11 02 45.80425
 2018-Nov-28 13:48  m  13 17 40.263737 +11 02 45.32648
 2018-Nov-28 13:49  m  13 17 40.272408 +11 02 44.84865
 2018-Nov-28 13:50  m  13 17 40.280907 +11 02 44.37075
 2018-Nov-28 13:51  m  13 17 40.289235 +11 02 43.89277
 2018-Nov-28 13:52  m  13 17 40.297392 +11 02 43.41471
 2018-Nov-28 13:53  m  13 17 40.305378 +11 02 42.93658
 2018-Nov-28 13:54  m  13 17 40.313193 +11 02 42.45836
 2018-Nov-28 13:55  m  13 17 40.320838 +11 02 41.98006
 2018-Nov-28 13:56  m  13 17 40.328312 +11 02 41.50168
 2018-Nov-28 13:57  m  13 17 40.335616 +11 02 41.02321
 2018-Nov-28 13:58  m  13 17 40.342749 +11 02 40.54465
 2018-Nov-28 13:59  m  13 17 40.349713 +11 02 40.06600
 2018-Nov-28 14:00  m  13 17 40.356506 +11 02 39.58725
 2018-Nov-28 14:01  m  13 17 40.363130 +11 02 39.10841
 2018-Nov-28 14:02  m  13 17 40.369585 +11 02 38.62948
 2018-Nov-28 14:03  m  13 17 40.375870 +11 02 38.15044
 2018-Nov-28 14:04  m  13 17 40.381986 +11 02 37.67130
 2018-Nov-28 14:05  m  13 17 40.387934 +11 02 37.19206
